{
    "links": {
        "self": "http://www.neowsapp.com/rest/v1/neo/54048870?api_key=iIulBulltgU6a56xZRHN4H3l9WmuAYTsLGpBGhQ2"
    },
    "id": "54048870",
    "neo_reference_id": "54048870",
    "name": "(2020 OU)",
    "designation": "2020 OU",
    "nasa_jpl_url": "http://ssd.jpl.nasa.gov/sbdb.cgi?sstr=54048870",
    "absolute_magnitude_h": 22.07,
    "estimated_diameter": {
        "kilometers": {
            "estimated_diameter_min": 0.1024601475,
            "estimated_diameter_max": 0.2291078547
        },
        "meters": {
            "estimated_diameter_min": 102.4601474676,
            "estimated_diameter_max": 229.1078547221
        },
        "miles": {
            "estimated_diameter_min": 0.0636657643,
            "estimated_diameter_max": 0.1423609768
        },
        "feet": {
            "estimated_diameter_min": 336.1553502175,
            "estimated_diameter_max": 751.6662140865
        }
    },
    "is_potentially_hazardous_asteroid": false,
    "close_approach_data": [
        {
            "close_approach_date": "2020-07-19",
            "close_approach_date_full": "2020-Jul-19 17:21",
            "epoch_date_close_approach": 1595179260000,
            "relative_velocity": {
                "kilometers_per_second": "9.7628388539",
                "kilometers_per_hour": "35146.2198739888",
                "miles_per_hour": "21838.4942322571"
            },
            "miss_distance": {
                "astronomical": "0.2892508364",
                "lunar": "112.5185753596",
                "kilometers": "43271309.021158468",
                "miles": "26887544.6337361384"
            },
            "orbiting_body": "Earth"
        }
    ],
    "orbital_data": {
        "orbit_id": "1",
        "orbit_determination_date": "2020-07-20 04:12:03",
        "first_observation_date": "2020-07-18",
        "last_observation_date": "2020-07-20",
        "data_arc_in_days": 2,
        "observations_used": 19,
        "orbit_uncertainty": "9",
        "minimum_orbit_intersection": ".199741",
        "jupiter_tisserand_invariant": "5.094",
        "epoch_osculation": "2459050.5",
        "eccentricity": ".07461917753095502",
        "semi_major_axis": "1.250363282434871",
        "inclination": "17.52718008377782",
        "ascending_node_longitude": "273.9765428664847",
        "orbital_period": "510.684580128845",
        "perihelion_distance": "1.157062202684676",
        "perihelion_argument": "77.01982299220874",
        "aphelion_distance": "1.343664362185067",
        "perihelion_time": "2459104.898136056474",
        "mean_anomaly": "321.6527897212213",
        "mean_motion": ".7049361073505931",
        "equinox": "J2000",
        "orbit_class": {
            "orbit_class_type": "AMO",
            "orbit_class_description": "Near-Earth asteroid orbits similar to that of 1221 Amor",
            "orbit_class_range": "1.017 AU < q (perihelion) < 1.3 AU"
        }
    },
    "is_sentry_object": false
}